ATLAS CENTAUR R/B       
1 06155U 72065B   26079.50405770  .00001239  00000+0  17195-3 0  9999
2 06155  35.0005 242.3754 0032869 101.2203 259.2194 14.77716471842861
SL-8 R/B                
1 08459U 75112B   26079.49342535  .00000221  00000+0  81220-4 0  9992
2 08459  74.0637 359.0398 0014451  87.7386 272.5423 14.38209812633427
SL-3 R/B                
1 10114U 77057B   26079.46578239  .00012433  00000+0  25846-3 0  9991
2 10114  97.5782 251.8644 0006313 239.1981 120.8647 15.45785567669993
SEASAT 1                
1 10967U 78064A   26079.42529262  .00000183  00000+0  89575-4 0  9993
2 10967 108.0087 148.0263 0002502 280.9211  79.1653 14.46168493508061
SL-14 R/B               
1 11267U 79011B   26079.37868845  .00000550  00000+0  51714-4 0  9999
2 11267  82.5204  86.4247 0016717  27.1182 333.0907 14.91920753530378
SL-8 R/B                
1 11574U 79089B   26079.49618924  .00000154  00000+0  54624-4 0  9992
2 11574  74.0673  71.0372 0016987 242.5200 117.4230 14.42356794437662
SL-14 R/B               
1 11672U 80005B   26079.33163779  .00000459  00000+0  43855-4 0  9999
2 11672  82.5124 297.1403 0016961 124.7812 235.5007 14.90941572478075
SL-8 R/B                
1 12139U 81003B   26078.99953647  .00017956  00000+0  45513-3 0  9991
2 12139  82.9357 280.4886 0261431 142.7040 219.2671 15.11391095316231
SL-3 R/B                
1 12465U 81046B   26079.49061141  .00008424  00000+0  19415-3 0  9997
2 12465  81.2279 276.7701 0018709 344.5158  15.5510 15.42241141440093
SL-3 R/B                
1 12904U 81103B   26079.49239241  .00005080  00000+0  22432-3 0  9995
2 12904  81.1604 200.7593 0012425 247.8219 112.1695 15.21497919974879
SL-3 R/B                
1 13068U 82013B   26079.49604944  .00003565  00000+0  15338-3 0  9997
2 13068  81.1749 148.1056 0023217 141.6407 218.6482 15.22112534405997
SL-3 R/B                
1 13154U 82039B   26079.52352417  .00002420  00000+0  14562-3 0  9997
2 13154  81.1579 203.4706 0029176 288.8918  70.9144 15.10138562383278
